{"type": "FeatureCollection", "features": [ {"type": "Feature", "properties": {"norad_id": 34910, "name": "COSMOS 2251 DEB", "group": "cosmos-2251-debris", "lat": -68.57594224054542, "lon": -43.499822328348664, "alt_km": 885.8506650341524, "timestamp": "2025-12-20T14:38:02.364546+00:00", "meta": {"OBJECT_NAME": "COSMOS 2251 DEB", "OBJECT_ID": "1993-036ADF", "EPOCH": "2025-12-16T00:48:30.580128", "MEAN_MOTION": 13.37690746, "ECCENTRICITY": 0.04679747, "INCLINATION": 73.876, "RA_OF_ASC_NODE": 96.2259, "ARG_OF_PERICENTER": 214.6056, "MEAN_ANOMALY": 328.1497, "EPHEMERIS_TYPE": 0, "CLASSIFICATION_TYPE": "U", "NORAD_CAT_ID": 34910, "ELEMENT_SET_NO": 999, "REV_AT_EPOCH": 81568, "BSTAR": 0.0011529423, "MEAN_MOTION_DOT": 1.118e-05, "MEAN_MOTION_DDOT": 0}, "tle": {"line1": "1 34910U 93036ADF 25350.03368727  .00001118  00000+0  11529-2 0  9999", "line2": "2 34910  73.8760  96.2259 0467974 214.6056 328.1497 13.37690746815682"}}, "geometry": {"type": "Point", "coordinates": [-43.499822328348664, -68.57594224054542]}}, {"type": "Feature", "properties": {"norad_id": 34911, "name": "COSMOS 2251 DEB", "group": "cosmos-2251-debris", "lat": -51.0751678214805, "lon": 70.4998820773682, "alt_km": 730.3028123693894, "timestamp": "2025-12-20T14:38:02.364556+00:00", "meta": {"OBJECT_NAME": "COSMOS 2251 DEB", "OBJECT_ID": "1993-036ADG", "EPOCH": "2025-12-18T03:01:44.907744", "MEAN_MOTION": 14.59380767, "ECCENTRICITY": 0.00838464, "INCLINATION": 74.0407, "RA_OF_ASC_NODE": 234.4788, "ARG_OF_PERICENTER": 358.5052, "MEAN_ANOMALY": 153.7057, "EPHEMERIS_TYPE": 0, "CLASSIFICATION_TYPE": "U", "NORAD_CAT_ID": 34911, "ELEMENT_SET_NO": 999, "REV_AT_EPOCH": 88665, "BSTAR": 0.00011478995, "MEAN_MOTION_DOT": 5.38e-06, "MEAN_MOTION_DDOT": 0}, "tle": {"line1": "1 34911U 93036ADG 25352.12621421  .00000538  00000+0  11479-3 0  9995", "line2": "2 34911  74.0407 234.4788 0083846 358.5052 153.7057 14.59380767886656"}}, "geometry": {"type": "Point", "coordinates": [70.4998820773682, -51.0751678214805]}}, {"type": "Feature", "properties": {"norad_id": 34913, "name": "COSMOS 2251 DEB", "group": "cosmos-2251-debris", "lat": -69.71363739021099, "lon": 138.86130303520937, "alt_km": 790.2260690589974, "timestamp": "2025-12-20T14:38:02.364566+00:00", "meta": {"OBJECT_NAME": "COSMOS 2251 DEB", "OBJECT_ID": "1993-036ADJ", "EPOCH": "2025-12-20T03:42:44.055648", "MEAN_MOTION": 14.34639564, "ECCENTRICITY": 0.002065, "INCLINATION": 74.0285, "RA_OF_ASC_NODE": 268.9094, "ARG_OF_PERICENTER": 16.7953, "MEAN_ANOMALY": 51.3496, "EPHEMERIS_TYPE": 0, "CLASSIFICATION_TYPE": "U", "NORAD_CAT_ID": 34913, "ELEMENT_SET_NO": 999, "REV_AT_EPOCH": 65294, "BSTAR": 3.8697518e-05, "MEAN_MOTION_DOT": 8.3e-07, "MEAN_MOTION_DDOT": 0}, "tle": {"line1": "1 34913U 93036ADJ 25354.15467657  .00000083  00000+0  38698-4 0  9999", "line2": "2 34913  74.0285 268.9094 0020650  16.7953  51.3496 14.34639564652949"}}, "geometry": {"type": "Point", "coordinates": [138.86130303520937, -69.71363739021099]}}, {"type": "Feature", "properties": {"norad_id": 34918, "name": "COSMOS 2251 DEB", "group": "cosmos-2251-debris", "lat": 69.94760094206329, "lon": -9.905473758633427, "alt_km": 705.0820942855071, "timestamp": "2025-12-20T14:38:02.364575+00:00", "meta": {"OBJECT_NAME": "COSMOS 2251 DEB", "OBJECT_ID": "1993-036ADP", "EPOCH": "2025-12-19T03:50:35.567232", "MEAN_MOTION": 14.61304419, "ECCENTRICITY": 0.00332262, "INCLINATION": 74.0713, "RA_OF_ASC_NODE": 301.3767, "ARG_OF_PERICENTER": 267.8083, "MEAN_ANOMALY": 106.949, "EPHEMERIS_TYPE": 0, "CLASSIFICATION_TYPE": "U", "NORAD_CAT_ID": 34918, "ELEMENT_SET_NO": 999, "REV_AT_EPOCH": 65430, "BSTAR": 0.001315247, "MEAN_MOTION_DOT": 6.521e-05, "MEAN_MOTION_DDOT": 0}, "tle": {"line1": "1 34918U 93036ADP 25353.16013388  .00006521  00000+0  13152-2 0  9991", "line2": "2 34918  74.0713 301.3767 0033226 267.8083 106.9490 14.61304419654306"}}, "geometry": {"type": "Point", "coordinates": [-9.905473758633427, 69.94760094206329]}}, {"type": "Feature", "properties": {"norad_id": 34924, "name": "COSMOS 2251 DEB", "group": "cosmos-2251-debris", "lat": 37.38051139955349, "lon": 87.06224223340116, "alt_km": 707.4454440803238, "timestamp": "2025-12-20T14:38:02.364586+00:00", "meta": {"OBJECT_NAME": "COSMOS 2251 DEB", "OBJECT_ID": "1993-036ADV", "EPOCH": "2025-12-19T22:32:54.153024", "MEAN_MOTION": 14.60090813, "ECCENTRICITY": 0.0053774, "INCLINATION": 74.041, "RA_OF_ASC_NODE": 75.7118, "ARG_OF_PERICENTER": 158.5725, "MEAN_ANOMALY": 319.6928, "EPHEMERIS_TYPE": 0, "CLASSIFICATION_TYPE": "U", "NORAD_CAT_ID": 34924, "ELEMENT_SET_NO": 999, "REV_AT_EPOCH": 87828, "BSTAR": 0.00056181, "MEAN_MOTION_DOT": 2.727e-05, "MEAN_MOTION_DDOT": 0}, "tle": {"line1": "1 34924U 93036ADV 25353.93951566  .00002727  00000+0  56181-3 0  9996", "line2": "2 34924  74.0410  75.7118 0053774 158.5725 319.6928 14.60090813878281"}}, "geometry": {"type": "Point", "coordinates": [87.06224223340116, 37.38051139955349]}}, {"type": "Feature", "properties": {"norad_id": 34944, "name": "COSMOS 2251 DEB", "group": "cosmos-2251-debris", "lat": -67.80535506853529, "lon": 172.20803538156568, "alt_km": 969.5713024483648, "timestamp": "2025-12-20T14:38:02.364595+00:00", "meta": {"OBJECT_NAME": "COSMOS 2251 DEB", "OBJECT_ID": "1993-036ADX", "EPOCH": "2025-12-17T02:06:11.847168", "MEAN_MOTION": 14.14195665, "ECCENTRICITY": 0.02198727, "INCLINATION": 73.7495, "RA_OF_ASC_NODE": 224.195, "ARG_OF_PERICENTER": 70.8954, "MEAN_ANOMALY": 291.5851, "EPHEMERIS_TYPE": 0, "CLASSIFICATION_TYPE": "U", "NORAD_CAT_ID": 34944, "ELEMENT_SET_NO": 999, "REV_AT_EPOCH": 64144, "BSTAR": 0.00030334686, "MEAN_MOTION_DOT": 7.03e-06, "MEAN_MOTION_DDOT": 0}, "tle": {"line1": "1 34944U 93036ADX 25351.08763712  .00000703  00000+0  30335-3 0  9991", "line2": "2 34944  73.7495 224.1950 0219872  70.8954 291.5851 14.14195665641448"}}, "geometry": {"type": "Point", "coordinates": [172.20803538156568, -67.80535506853529]}}, {"type": "Feature", "properties": {"norad_id": 34946, "name": "COSMOS 2251 DEB", "group": "cosmos-2251-debris", "lat": -56.96220081652824, "lon": -59.105097674305014, "alt_km": 726.1073866029528, "timestamp": "2025-12-20T14:38:02.364606+00:00", "meta": {"OBJECT_NAME": "COSMOS 2251 DEB", "OBJECT_ID": "1993-036ADZ", "EPOCH": "2025-12-19T07:42:37.791072", "MEAN_MOTION": 14.6202881, "ECCENTRICITY": 0.0048641, "INCLINATION": 74.0227, "RA_OF_ASC_NODE": 329.5012, "ARG_OF_PERICENTER": 104.6695, "MEAN_ANOMALY": 255.9871, "EPHEMERIS_TYPE": 0, "CLASSIFICATION_TYPE": "U", "NORAD_CAT_ID": 34946, "ELEMENT_SET_NO": 999, "REV_AT_EPOCH": 88305, "BSTAR": 0.00040056, "MEAN_MOTION_DOT": 2.013e-05, "MEAN_MOTION_DDOT": 0}, "tle": {"line1": "1 34946U 93036ADZ 25353.32127073  .00002013  00000+0  40056-3 0  9993", "line2": "2 34946  74.0227 329.5012 0048641 104.6695 255.9871 14.62028810883059"}}, "geometry": {"type": "Point", "coordinates": [-59.105097674305014, -56.96220081652824]}}, {"type": "Feature", "properties": {"norad_id": 34949, "name": "COSMOS 2251 DEB", "group": "cosmos-2251-debris", "lat": 3.315385804986249, "lon": -86.66779633603018, "alt_km": 623.1549240057839, "timestamp": "2025-12-20T14:38:02.364615+00:00", "meta": {"OBJECT_NAME": "COSMOS 2251 DEB", "OBJECT_ID": "1993-036AEC", "EPOCH": "2025-12-19T23:10:09.715008", "MEAN_MOTION": 14.74045348, "ECCENTRICITY": 0.0080206, "INCLINATION": 74.0194, "RA_OF_ASC_NODE": 95.5416, "ARG_OF_PERICENTER": 239.3679, "MEAN_ANOMALY": 119.957, "EPHEMERIS_TYPE": 0, "CLASSIFICATION_TYPE": "U", "NORAD_CAT_ID": 34949, "ELEMENT_SET_NO": 999, "REV_AT_EPOCH": 88468, "BSTAR": 0.00035104, "MEAN_MOTION_DOT": 2.396e-05, "MEAN_MOTION_DDOT": 0}, "tle": {"line1": "1 34949U 93036AEC 25353.96539022  .00002396  00000+0  35104-3 0  9999", "line2": "2 34949  74.0194  95.5416 0080206 239.3679 119.9570 14.74045348884687"}}, "geometry": {"type": "Point", "coordinates": [-86.66779633603018, 3.315385804986249]}}, {"type": "Feature", "properties": {"norad_id": 34953, "name": "COSMOS 2251 DEB", "group": "cosmos-2251-debris", "lat": 9.528202352370153, "lon": 15.051059637827377, "alt_km": 624.7419490619286, "timestamp": "2025-12-20T14:38:02.364626+00:00", "meta": {"OBJECT_NAME": "COSMOS 2251 DEB", "OBJECT_ID": "1993-036AEG", "EPOCH": "2025-12-19T19:47:21.727392", "MEAN_MOTION": 14.69013601, "ECCENTRICITY": 0.00584711, "INCLINATION": 74.0926, "RA_OF_ASC_NODE": 13.8215, "ARG_OF_PERICENTER": 3.8075, "MEAN_ANOMALY": 175.3967, "EPHEMERIS_TYPE": 0, "CLASSIFICATION_TYPE": "U", "NORAD_CAT_ID": 34953, "ELEMENT_SET_NO": 999, "REV_AT_EPOCH": 88232, "BSTAR": 0.00051664443, "MEAN_MOTION_DOT": 3.078e-05, "MEAN_MOTION_DDOT": 0}, "tle": {"line1": "1 34953U 93036AEG 25353.82455703  .00003078  00000+0  51664-3 0  9999", "line2": "2 34953  74.0926  13.8215 0058471   3.8075 175.3967 14.69013601882324"}}, "geometry": {"type": "Point", "coordinates": [15.051059637827377, 9.528202352370153]}}, {"type": "Feature", "properties": {"norad_id": 34955, "name": "COSMOS 2251 DEB", "group": "cosmos-2251-debris", "lat": -39.50229253786782, "lon": -143.15559341401982, "alt_km": 520.2633709203019, "timestamp": "2025-12-20T14:38:02.364636+00:00", "meta": {"OBJECT_NAME": "COSMOS 2251 DEB", "OBJECT_ID": "1993-036AEJ", "EPOCH": "2025-12-20T00:24:58.893120", "MEAN_MOTION": 15.00658938, "ECCENTRICITY": 0.00779123, "INCLINATION": 74.0366, "RA_OF_ASC_NODE": 231.6989, "ARG_OF_PERICENTER": 299.5962, "MEAN_ANOMALY": 59.7477, "EPHEMERIS_TYPE": 0, "CLASSIFICATION_TYPE": "U", "NORAD_CAT_ID": 34955, "ELEMENT_SET_NO": 999, "REV_AT_EPOCH": 90143, "BSTAR": 0.00046776562, "MEAN_MOTION_DOT": 6.274e-05, "MEAN_MOTION_DDOT": 0}, "tle": {"line1": "1 34955U 93036AEJ 25354.01734830  .00006274  00000+0  46777-3 0  9994", "line2": "2 34955  74.0366 231.6989 0077912 299.5962  59.7477 15.00658938901431"}}, "geometry": {"type": "Point", "coordinates": [-143.15559341401982, -39.50229253786782]}}]}